{
  "type": "FeatureCollection",
  "features": [
    {
      "type": "Feature",
      "properties": {
        "norad_id": 66469,
        "name": "STARLINK-35451",
        "group": "last-30-days",
        "lat": -24.260280469594296,
        "lon": -45.19603841238299,
        "alt_km": 416.6902394222825,
        "timestamp": "2025-12-06T18:50:08.954986+00:00",
        "meta_object_name": "STARLINK-35451",
        "meta_object_id": "2025-262P",
        "meta_epoch": "2025-12-06T08:00:01.999872",
        "meta_mean_motion": 15.50580184,
        "meta_eccentricity": 0.00013218,
        "meta_inclination": 43.0004,
        "meta_ra_of_asc_node": 108.5221,
        "meta_arg_of_pericenter": 260.551,
        "meta_mean_anomaly": 313.2821,
        "meta_ephemeris_type": 0,
        "meta_classification_type": "U",
        "meta_norad_cat_id": 66469,
        "meta_element_set_no": 999,
        "meta_rev_at_epoch": 460,
        "meta_bstar": 0.00015637754,
        "meta_mean_motion_dot": 8.843e-05,
        "meta_mean_motion_ddot": 0,
        "tle_line1": "1 66469U 25262P   25340.33335648  .00008843  00000+0  15638-3 0  9995",
        "tle_line2": "2 66469  43.0004 108.5221 0001321 260.5510 313.2821 15.50580184  4606"
      },
      "geometry": {
        "type": "Point",
        "coordinates": [
          -45.19603841238299,
          -24.260280469594296
        ]
      }
    },
    {
      "type": "Feature",
      "properties": {
        "norad_id": 66470,
        "name": "STARLINK-35655",
        "group": "last-30-days",
        "lat": -21.951392403645514,
        "lon": -48.48176588513385,
        "alt_km": 416.8450943812795,
        "timestamp": "2025-12-06T18:50:08.954997+00:00",
        "meta_object_name": "STARLINK-35655",
        "meta_object_id": "2025-262Q",
        "meta_epoch": "2025-12-06T08:00:01.999872",
        "meta_mean_motion": 15.5070205,
        "meta_eccentricity": 0.00014171,
        "meta_inclination": 43.0006,
        "meta_ra_of_asc_node": 108.5328,
        "meta_arg_of_pericenter": 259.0192,
        "meta_mean_anomaly": 311.0068,
        "meta_ephemeris_type": 0,
        "meta_classification_type": "U",
        "meta_norad_cat_id": 66470,
        "meta_element_set_no": 999,
        "meta_rev_at_epoch": 460,
        "meta_bstar": -0.0045603071,
        "meta_mean_motion_dot": -0.00260314,
        "meta_mean_motion_ddot": 0,
        "tle_line1": "1 66470U 25262Q   25340.33335648 -.00260314  00000+0 -45603-2 0  9996",
        "tle_line2": "2 66470  43.0006 108.5328 0001417 259.0192 311.0068 15.50702050  4600"
      },
      "geometry": {
        "type": "Point",
        "coordinates": [
          -48.48176588513385,
          -21.951392403645514
        ]
      }
    },
    {
      "type": "Feature",
      "properties": {
        "norad_id": 66471,
        "name": "STARLINK-35569",
        "group": "last-30-days",
        "lat": -23.11840199946107,
        "lon": -46.84735680878173,
        "alt_km": 416.858535309937,
        "timestamp": "2025-12-06T18:50:08.955010+00:00",
        "meta_object_name": "STARLINK-35569",
        "meta_object_id": "2025-262R",
        "meta_epoch": "2025-12-06T08:00:01.999872",
        "meta_mean_motion": 15.50610869,
        "meta_eccentricity": 0.00011458,
        "meta_inclination": 43.0003,
        "meta_ra_of_asc_node": 108.5272,
        "meta_arg_of_pericenter": 258.2877,
        "meta_mean_anomaly": 313.6707,
        "meta_ephemeris_type": 0,
        "meta_classification_type": "U",
        "meta_norad_cat_id": 66471,
        "meta_element_set_no": 999,
        "meta_rev_at_epoch": 460,
        "meta_bstar": -0.0016270899,
        "meta_mean_motion_dot": -0.00094753,
        "meta_mean_motion_ddot": 0,
        "tle_line1": "1 66471U 25262R   25340.33335648 -.00094753  00000+0 -16271-2 0  9998",
        "tle_line2": "2 66471  43.0003 108.5272 0001145 258.2877 313.6707 15.50610869  4609"
      },
      "geometry": {
        "type": "Point",
        "coordinates": [
          -46.84735680878173,
          -23.11840199946107
        ]
      }
    },
    {
      "type": "Feature",
      "properties": {
        "norad_id": 66472,
        "name": "STARLINK-35567",
        "group": "last-30-days",
        "lat": -25.407127014524075,
        "lon": -43.47868460578268,
        "alt_km": 417.15795220044856,
        "timestamp": "2025-12-06T18:50:08.955020+00:00",
        "meta_object_name": "STARLINK-35567",
        "meta_object_id": "2025-262S",
        "meta_epoch": "2025-12-06T08:00:01.999872",
        "meta_mean_motion": 15.50698085,
        "meta_eccentricity": 0.00012857,
        "meta_inclination": 43.0006,
        "meta_ra_of_asc_node": 108.5178,
        "meta_arg_of_pericenter": 264.2043,
        "meta_mean_anomaly": 311.5743,
        "meta_ephemeris_type": 0,
        "meta_classification_type": "U",
        "meta_norad_cat_id": 66472,
        "meta_element_set_no": 999,
        "meta_rev_at_epoch": 460,
        "meta_bstar": -0.004413053,
        "meta_mean_motion_dot": -0.00252139,
        "meta_mean_motion_ddot": 0,
        "tle_line1": "1 66472U 25262S   25340.33335648 -.00252139  00000+0 -44131-2 0  9999",
        "tle_line2": "2 66472  43.0006 108.5178 0001285 264.2043 311.5743 15.50698085  4608"
      },
      "geometry": {
        "type": "Point",
        "coordinates": [
          -43.47868460578268,
          -25.407127014524075
        ]
      }
    },
    {
      "type": "Feature",
      "properties": {
        "norad_id": 66473,
        "name": "STARLINK-35568",
        "group": "last-30-days",
        "lat": -26.516255575768657,
        "lon": -41.756173880721846,
        "alt_km": 417.08210572723874,
        "timestamp": "2025-12-06T18:50:08.955029+00:00",
        "meta_object_name": "STARLINK-35568",
        "meta_object_id": "2025-262T",
        "meta_epoch": "2025-12-06T08:00:01.999872",
        "meta_mean_motion": 15.50635291,
        "meta_eccentricity": 0.00014084,
        "meta_inclination": 43.0006,
        "meta_ra_of_asc_node": 108.5131,
        "meta_arg_of_pericenter": 268.1624,
        "meta_mean_anomaly": 309.5407,
        "meta_ephemeris_type": 0,
        "meta_classification_type": "U",
        "meta_norad_cat_id": 66473,
        "meta_element_set_no": 999,
        "meta_rev_at_epoch": 460,
        "meta_bstar": -0.0023511138,
        "meta_mean_motion_dot": -0.00136171,
        "meta_mean_motion_ddot": 0,
        "tle_line1": "1 66473U 25262T   25340.33335648 -.00136171  00000+0 -23511-2 0  9996",
        "tle_line2": "2 66473  43.0006 108.5131 0001408 268.1624 309.5407 15.50635291  4607"
      },
      "geometry": {
        "type": "Point",
        "coordinates": [
          -41.756173880721846,
          -26.516255575768657
        ]
      }
    },
    {
      "type": "Feature",
      "properties": {
        "norad_id": 66474,
        "name": "STARLINK-35620",
        "group": "last-30-days",
        "lat": -27.56855160225107,
        "lon": -40.060336925337886,
        "alt_km": 416.9104361255995,
        "timestamp": "2025-12-06T18:50:08.955039+00:00",
        "meta_object_name": "STARLINK-35620",
        "meta_object_id": "2025-262U",
        "meta_epoch": "2025-12-06T08:00:01.999872",
        "meta_mean_motion": 15.50538425,
        "meta_eccentricity": 0.0001411,
        "meta_inclination": 43.0005,
        "meta_ra_of_asc_node": 108.507,
        "meta_arg_of_pericenter": 266.7967,
        "meta_mean_anomaly": 312.7714,
        "meta_ephemeris_type": 0,
        "meta_classification_type": "U",
        "meta_norad_cat_id": 66474,
        "meta_element_set_no": 999,
        "meta_rev_at_epoch": 460,
        "meta_bstar": 0.00087224341,
        "meta_mean_motion_dot": 0.00051089,
        "meta_mean_motion_ddot": 0,
        "tle_line1": "1 66474U 25262U   25340.33335648  .00051089  00000+0  87224-3 0  9991",
        "tle_line2": "2 66474  43.0005 108.5070 0001411 266.7967 312.7714 15.50538425  4605"
      },
      "geometry": {
        "type": "Point",
        "coordinates": [
          -40.060336925337886,
          -27.56855160225107
        ]
      }
    },
    {
      "type": "Feature",
      "properties": {
        "norad_id": 66475,
        "name": "STARLINK-35538",
        "group": "last-30-days",
        "lat": -28.67602851527705,
        "lon": -38.19822148329252,
        "alt_km": 416.9749693747608,
        "timestamp": "2025-12-06T18:50:08.955049+00:00",
        "meta_object_name": "STARLINK-35538",
        "meta_object_id": "2025-262V",
        "meta_epoch": "2025-12-06T08:00:01.999872",
        "meta_mean_motion": 15.50582583,
        "meta_eccentricity": 0.00015917,
        "meta_inclination": 43.0005,
        "meta_ra_of_asc_node": 108.5035,
        "meta_arg_of_pericenter": 261.8086,
        "meta_mean_anomaly": 319.7566,
        "meta_ephemeris_type": 0,
        "meta_classification_type": "U",
        "meta_norad_cat_id": 66475,
        "meta_element_set_no": 999,
        "meta_rev_at_epoch": 460,
        "meta_bstar": -0.00106877,
        "meta_mean_motion_dot": -0.00062551,
        "meta_mean_motion_ddot": 0,
        "tle_line1": "1 66475U 25262V   25340.33335648 -.00062551  00000+0 -10688-2 0  9999",
        "tle_line2": "2 66475  43.0005 108.5035 0001591 261.8086 319.7566 15.50582583  4600"
      },
      "geometry": {
        "type": "Point",
        "coordinates": [
          -38.19822148329252,
          -28.67602851527705
        ]
      }
    }
  ]
}